{"fetched_at":"2026-07-08T07:03:34.892Z","source":"https://celestrak.org/NORAD/elements/gp.php?GROUP=oneweb&FORMAT=JSON","constellation":"oneweb","records":[{"OBJECT_NAME":"ONEWEB-0233","OBJECT_ID":"2021-045AE","EPOCH":"2026-07-07T16:57:15.934752","CLASSIFICATION_TYPE":"U","MEAN_MOTION":13.15549332,"ECCENTRICITY":0.0002174,"INCLINATION":87.8988,"RA_OF_ASC_NODE":255.1466,"ARG_OF_PERICENTER":106.8593,"MEAN_ANOMALY":253.2776,"EPHEMERIS_TYPE":0,"NORAD_CAT_ID":48795,"ELEMENT_SET_NO":999,"REV_AT_EPOCH":24699,"BSTAR":0.00014946,"MEAN_MOTION_DOT":6.9e-7,"MEAN_MOTION_DDOT":0},{"OBJECT_NAME":"ONEWEB-0190","OBJECT_ID":"2021-045AF","EPOCH":"2026-07-07T16:39:11.918016","CLASSIFICATION_TYPE":"U","MEAN_MOTION":13.15548437,"ECCENTRICITY":0.0002037,"INCLINATION":87.8995,"RA_OF_ASC_NODE":255.112,"ARG_OF_PERICENTER":118.3532,"MEAN_ANOMALY":241.7804,"EPHEMERIS_TYPE":0,"NORAD_CAT_ID":48796,"ELEMENT_SET_NO":999,"REV_AT_EPOCH":24706,"BSTAR":0.000062727,"MEAN_MOTION_DOT":3.6e-7,"MEAN_MOTION_DDOT":0},{"OBJECT_NAME":"ONEWEB-0236","OBJECT_ID":"2021-045AG","EPOCH":"2026-07-07T17:04:18.376320","CLASSIFICATION_TYPE":"U","MEAN_MOTION":13.15541045,"ECCENTRICITY":0.0001949,"INCLINATION":87.8985,"RA_OF_ASC_NODE":255.1177,"ARG_OF_PERICENTER":97.8391,"MEAN_ANOMALY":262.2961,"EPHEMERIS_TYPE":0,"NORAD_CAT_ID":48797,"ELEMENT_SET_NO":999,"REV_AT_EPOCH":24695,"BSTAR":0.0042838,"MEAN_MOTION_DOT":0.00001626,"MEAN_MOTION_DDOT":0},{"OBJECT_NAME":"ONEWEB-0248","OBJECT_ID":"2021-045AH","EPOCH":"2026-07-07T17:22:33.053088","CLASSIFICATION_TYPE":"U","MEAN_MOTION":13.1554892,"ECCENTRICITY":0.0002316,"INCLINATION":87.9,"RA_OF_ASC_NODE":255.1002,"ARG_OF_PERICENTER":109.9423,"MEAN_ANOMALY":250.1957,"EPHEMERIS_TYPE":0,"NORAD_CAT_ID":48798,"ELEMENT_SET_NO":999,"REV_AT_EPOCH":24711,"BSTAR":0.00023641,"MEAN_MOTION_DOT":0.00000102,"MEAN_MOTION_DDOT":0},{"OBJECT_NAME":"ONEWEB-0225","OBJECT_ID":"2021-045AJ","EPOCH":"2026-07-07T16:04:58.406016","CLASSIFICATION_TYPE":"U","MEAN_MOTION":13.15547832,"ECCENTRICITY":0.0002053,"INCLINATION":87.8996,"RA_OF_ASC_NODE":255.1182,"ARG_OF_PERICENTER":114.9406,"MEAN_ANOMALY":245.1938,"EPHEMERIS_TYPE":0,"NORAD_CAT_ID":48799,"ELEMENT_SET_NO":999,"REV_AT_EPOCH":24711,"BSTAR":-0.00047252,"MEAN_MOTION_DOT":-0.00000165,"MEAN_MOTION_DDOT":0},{"OBJECT_NAME":"ONEWEB-0215","OBJECT_ID":"2021-045AK","EPOCH":"2026-07-07T17:11:08.446272","CLASSIFICATION_TYPE":"U","MEAN_MOTION":13.15548835,"ECCENTRICITY":0.0002188,"INCLINATION":87.9002,"RA_OF_ASC_NODE":255.0926,"ARG_OF_PERICENTER":116.9522,"MEAN_ANOMALY":243.1832,"EPHEMERIS_TYPE":0,"NORAD_CAT_ID":48800,"ELEMENT_SET_NO":999,"REV_AT_EPOCH":24699,"BSTAR":0.00039754,"MEAN_MOTION_DOT":0.00000162,"MEAN_MOTION_DDOT":0},{"OBJECT_NAME":"ONEWEB-0216","OBJECT_ID":"2021-045AL","EPOCH":"2026-07-07T17:24:50.067072","CLASSIFICATION_TYPE":"U","MEAN_MOTION":13.15547576,"ECCENTRICITY":0.0001992,"INCLINATION":87.9001,"RA_OF_ASC_NODE":255.1047,"ARG_OF_PERICENTER":96.51,"MEAN_ANOMALY":263.6257,"EPHEMERIS_TYPE":0,"NORAD_CAT_ID":48801,"ELEMENT_SET_NO":999,"REV_AT_EPOCH":24700,"BSTAR":0.00018678,"MEAN_MOTION_DOT":8.3e-7,"MEAN_MOTION_DDOT":0},{"OBJECT_NAME":"ONEWEB-0239","OBJECT_ID":"2021-045AM","EPOCH":"2026-07-07T17:31:40.708128","CLASSIFICATION_TYPE":"U","MEAN_MOTION":13.15547828,"ECCENTRICITY":0.0002443,"INCLINATION":87.8987,"RA_OF_ASC_NODE":255.1081,"ARG_OF_PERICENTER":116.0892,"MEAN_ANOMALY":244.049,"EPHEMERIS_TYPE":0,"NORAD_CAT_ID":48802,"ELEMENT_SET_NO":999,"REV_AT_EPOCH":24704,"BSTAR":0.00011938,"MEAN_MOTION_DOT":5.8e-7,"MEAN_MOTION_DDOT":0},{"OBJECT_NAME":"ONEWEB-0249","OBJECT_ID":"2021-060A","EPOCH":"2026-07-06T14:01:05.327616","CLASSIFICATION_TYPE":"U","MEAN_MOTION":13.16596447,"ECCENTRICITY":0.0002165,"INCLINATION":87.9082,"RA_OF_ASC_NODE":224.9253,"ARG_OF_PERICENTER":97.1179,"MEAN_ANOMALY":263.0199,"EPHEMERIS_TYPE":0,"NORAD_CAT_ID":48967,"ELEMENT_SET_NO":999,"REV_AT_EPOCH":24216,"BSTAR":-0.000088814384,"MEAN_MOTION_DOT":-2.1e-7,"MEAN_MOTION_DDOT":0},{"OBJECT_NAME":"ONEWEB-0250","OBJECT_ID":"2021-060B","EPOCH":"2026-07-06T15:03:16.552224","CLASSIFICATION_TYPE":"U","MEAN_MOTION":13.25835145,"ECCENTRICITY":0.00031364,"INCLINATION":87.9083,"RA_OF_ASC_NODE":222.6098,"ARG_OF_PERICENTER":94.5527,"MEAN_ANOMALY":265.5968,"EPHEMERIS_TYPE":0,"NORAD_CAT_ID":48968,"ELEMENT_SET_NO":999,"REV_AT_EPOCH":24279,"BSTAR":-0.000076685683,"MEAN_MOTION_DOT":-2e-7,"MEAN_MOTION_DDOT":0},{"OBJECT_NAME":"ONEWEB-0252","OBJECT_ID":"2021-060D","EPOCH":"2026-07-06T14:45:34.959744","CLASSIFICATION_TYPE":"U","MEAN_MOTION":13.16594936,"ECCENTRICITY":0.00018371,"INCLINATION":87.908,"RA_OF_ASC_NODE":224.9117,"ARG_OF_PERICENTER":95.0582,"MEAN_ANOMALY":265.0759,"EPHEMERIS_TYPE":0,"NORAD_CAT_ID":48970,"ELEMENT_SET_NO":999,"REV_AT_EPOCH":24221,"BSTAR":0.00004595107,"MEAN_MOTION_DOT":3e-7,"MEAN_MOTION_DDOT":0},{"OBJECT_NAME":"ONEWEB-0253","OBJECT_ID":"2021-060E","EPOCH":"2026-07-06T14:29:37.493952","CLASSIFICATION_TYPE":"U","MEAN_MOTION":13.16594853,"ECCENTRICITY":0.00021673,"INCLINATION":87.9078,"RA_OF_ASC_NODE":224.9194,"ARG_OF_PERICENTER":96.6238,"MEAN_ANOMALY":263.514,"EPHEMERIS_TYPE":0,"NORAD_CAT_ID":48971,"ELEMENT_SET_NO":999,"REV_AT_EPOCH":24214,"BSTAR":0.000035768487,"MEAN_MOTION_DOT":2.7e-7,"MEAN_MOTION_DDOT":0},{"OBJECT_NAME":"ONEWEB-0254","OBJECT_ID":"2021-060F","EPOCH":"2026-07-07T01:39:55.018656","CLASSIFICATION_TYPE":"U","MEAN_MOTION":13.16593224,"ECCENTRICITY":0.00022291,"INCLINATION":87.9082,"RA_OF_ASC_NODE":224.8248,"ARG_OF_PERICENTER":102.4404,"MEAN_ANOMALY":257.6977,"EPHEMERIS_TYPE":0,"NORAD_CAT_ID":48972,"ELEMENT_SET_NO":999,"REV_AT_EPOCH":24220,"BSTAR":-0.0001140655,"MEAN_MOTION_DOT":-3.1e-7,"MEAN_MOTION_DDOT":0},{"OBJECT_NAME":"ONEWEB-0255","OBJECT_ID":"2021-060G","EPOCH":"2026-07-07T00:45:11.849760","CLASSIFICATION_TYPE":"U","MEAN_MOTION":13.16593958,"ECCENTRICITY":0.00021108,"INCLINATION":87.9083,"RA_OF_ASC_NODE":224.8385,"ARG_OF_PERICENTER":99.7646,"MEAN_ANOMALY":260.3724,"EPHEMERIS_TYPE":0,"NORAD_CAT_ID":48973,"ELEMENT_SET_NO":999,"REV_AT_EPOCH":24227,"BSTAR":0.000085175789,"MEAN_MOTION_DOT":4.5e-7,"MEAN_MOTION_DDOT":0},{"OBJECT_NAME":"ONEWEB-0256","OBJECT_ID":"2021-060H","EPOCH":"2026-07-06T14:26:12.254208","CLASSIFICATION_TYPE":"U","MEAN_MOTION":13.16594501,"ECCENTRICITY":0.00020209,"INCLINATION":87.9077,"RA_OF_ASC_NODE":224.9273,"ARG_OF_PERICENTER":91.9961,"MEAN_ANOMALY":268.1402,"EPHEMERIS_TYPE":0,"NORAD_CAT_ID":48974,"ELEMENT_SET_NO":999,"REV_AT_EPOCH":24218,"BSTAR":-0.00012854087,"MEAN_MOTION_DOT":-3.6e-7,"MEAN_MOTION_DDOT":0},{"OBJECT_NAME":"ONEWEB-0257","OBJECT_ID":"2021-060J","EPOCH":"2026-07-06T15:12:56.268576","CLASSIFICATION_TYPE":"U","MEAN_MOTION":13.16593131,"ECCENTRICITY":0.00019755,"INCLINATION":87.9081,"RA_OF_ASC_NODE":224.9087,"ARG_OF_PERICENTER":98.0506,"MEAN_ANOMALY":262.0849,"EPHEMERIS_TYPE":0,"NORAD_CAT_ID":48975,"ELEMENT_SET_NO":999,"REV_AT_EPOCH":24214,"BSTAR":0.000039910787,"MEAN_MOTION_DOT":2.8e-7,"MEAN_MOTION_DDOT":0}]}
